{"fetched_at":"2026-07-22T07:10:11.943Z","source":"https://celestrak.org/NORAD/elements/gp.php?NAME=UMBRA&FORMAT=JSON","constellation":"umbra","records":[{"OBJECT_NAME":"UMBRA-07","OBJECT_ID":"2023-174AT","EPOCH":"2026-07-21T13:51:26.734464","CLASSIFICATION_TYPE":"U","MEAN_MOTION":15.09688644,"ECCENTRICITY":0.00015975,"INCLINATION":97.3769,"RA_OF_ASC_NODE":257.0472,"ARG_OF_PERICENTER":346.3703,"MEAN_ANOMALY":13.7483,"EPHEMERIS_TYPE":0,"NORAD_CAT_ID":58297,"ELEMENT_SET_NO":999,"REV_AT_EPOCH":14860,"BSTAR":0.00056413799,"MEAN_MOTION_DOT":0.00009032,"MEAN_MOTION_DDOT":0},{"OBJECT_NAME":"UMBRA-09","OBJECT_ID":"2024-149CB","EPOCH":"2026-07-21T04:49:10.405632","CLASSIFICATION_TYPE":"U","MEAN_MOTION":15.18962335,"ECCENTRICITY":0.00022083,"INCLINATION":97.6961,"RA_OF_ASC_NODE":290.0116,"ARG_OF_PERICENTER":190.2935,"MEAN_ANOMALY":169.8254,"EPHEMERIS_TYPE":0,"NORAD_CAT_ID":60541,"ELEMENT_SET_NO":999,"REV_AT_EPOCH":10588,"BSTAR":0.00057654733,"MEAN_MOTION_DOT":0.00011991,"MEAN_MOTION_DDOT":0},{"OBJECT_NAME":"UMBRA-10","OBJECT_ID":"2024-149CH","EPOCH":"2026-07-21T12:42:49.946400","CLASSIFICATION_TYPE":"U","MEAN_MOTION":15.18972948,"ECCENTRICITY":0.00020078,"INCLINATION":97.6967,"RA_OF_ASC_NODE":290.3773,"ARG_OF_PERICENTER":156.4425,"MEAN_ANOMALY":203.6901,"EPHEMERIS_TYPE":0,"NORAD_CAT_ID":60547,"ELEMENT_SET_NO":999,"REV_AT_EPOCH":10594,"BSTAR":0.00074523637,"MEAN_MOTION_DOT":0.00015533,"MEAN_MOTION_DDOT":0},{"OBJECT_NAME":"UMBRA-11","OBJECT_ID":"2025-276CL","EPOCH":"2026-07-21T10:55:00.967584","CLASSIFICATION_TYPE":"U","MEAN_MOTION":15.27936977,"ECCENTRICITY":0.0003242,"INCLINATION":97.4178,"RA_OF_ASC_NODE":276.9014,"ARG_OF_PERICENTER":168.7408,"MEAN_ANOMALY":191.3905,"EPHEMERIS_TYPE":0,"NORAD_CAT_ID":66748,"ELEMENT_SET_NO":999,"REV_AT_EPOCH":3572,"BSTAR":0.00061092919,"MEAN_MOTION_DOT":0.00016604,"MEAN_MOTION_DDOT":0},{"OBJECT_NAME":"UMBRA-12","OBJECT_ID":"2026-004J","EPOCH":"2026-07-21T05:37:58.401408","CLASSIFICATION_TYPE":"U","MEAN_MOTION":14.89564031,"ECCENTRICITY":0.00069674,"INCLINATION":97.8033,"RA_OF_ASC_NODE":200.5399,"ARG_OF_PERICENTER":36.5519,"MEAN_ANOMALY":323.6173,"EPHEMERIS_TYPE":0,"NORAD_CAT_ID":67371,"ELEMENT_SET_NO":999,"REV_AT_EPOCH":2837,"BSTAR":0.00032527927,"MEAN_MOTION_DOT":0.00003049,"MEAN_MOTION_DDOT":0}]}
