{"epoch":1784710044,"count":18256,"objects":[{"id":"58297","name":"UMBRA-07","type":"PAYLOAD","l1":"1 58297U 23174AT  26202.57739276  .00009032  00000-0  56414-3 0  9993","l2":"2 58297  97.3769 257.0472 0001598 346.3703  13.7483 15.09688644148606"},{"id":"60541","name":"UMBRA-09","type":"PAYLOAD","l1":"1 60541U 24149CB  26202.20081488  .00011991  00000-0  57655-3 0  9991","l2":"2 60541  97.6961 290.0116 0002208 190.2935 169.8254 15.18962335105886"},{"id":"60547","name":"UMBRA-10","type":"PAYLOAD","l1":"1 60547U 24149CH  26202.52974475  .00015533  00000-0  74524-3 0  9999","l2":"2 60547  97.6967 290.3773 0002008 156.4425 203.6901 15.18972948105940"},{"id":"66748","name":"UMBRA-11","type":"PAYLOAD","l1":"1 66748U 25276CL  26202.45487231  .00016604  00000-0  61093-3 0  9998","l2":"2 66748  97.4178 276.9014 0003242 168.7408 191.3905 15.27936977 35724"},{"id":"67371","name":"UMBRA-12","type":"PAYLOAD","l1":"1 67371U 26004J   26202.23470372  .00003049  00000-0  32528-3 0  9995","l2":"2 67371  97.8033 200.5399 0006967  36.5519 323.6173 14.89564031 28377"}]}